[{"OBJECT_NAME":"BLUEBON","OBJECT_ID":"2025-009CH","EPOCH":"2026-03-09T16:52:33.225312","MEAN_MOTION":15.29047254,"ECCENTRICITY":0.00011933,"INCLINATION":97.4017,"RA_OF_ASC_NODE":152.2033,"ARG_OF_PERICENTER":43.39,"MEAN_ANOMALY":316.7434,"EPHEMERIS_TYPE":0,"CLASSIFICATION_TYPE":"U","NORAD_CAT_ID":62688,"ELEMENT_SET_NO":999,"REV_AT_EPOCH":6376,"BSTAR":0.00037313027,"MEAN_MOTION_DOT":0.00010452,"MEAN_MOTION_DDOT":0},{"OBJECT_NAME":"STARLINK-33876","OBJECT_ID":"2025-083F","EPOCH":"2026-03-09T05:06:22.440672","MEAN_MOTION":15.27590776,"ECCENTRICITY":0.00016181,"INCLINATION":43.0046,"RA_OF_ASC_NODE":7.9222,"ARG_OF_PERICENTER":268.9865,"MEAN_ANOMALY":91.0801,"EPHEMERIS_TYPE":0,"CLASSIFICATION_TYPE":"U","NORAD_CAT_ID":63639,"ELEMENT_SET_NO":999,"REV_AT_EPOCH":4999,"BSTAR":0.0013464953,"MEAN_MOTION_DOT":0.00036989,"MEAN_MOTION_DDOT":0}]
